COSMOS 1975             
1 19573U 88093A   26157.68501644  .00007891  00000+0  27708-3 0  9999
2 19573  82.5200  28.2651 0010355 209.1672 150.8991 15.29189896 33006
SL-14 R/B               
1 19574U 88093B   26157.56574156  .00000515  00000+0  56199-4 0  9998
2 19574  82.5305 318.6176 0022163 103.1974 325.5188 14.85733758 14213
SL-16 R/B               
1 19650U 88102B   26157.76327079  .00000002  00000+0  25046-4 0  9994
2 19650  71.0005 324.0728 0016116 239.6836 120.2694 14.16166658939508
INTERCOSMOS 24          
1 20261U 89080A   26157.45308340  .00000963  00000+0  27427-3 0  9996
2 20261  82.6075  46.6282 1188322  86.7900 286.8152 12.59644676677972
SL-14 R/B               
1 20262U 89080C   26157.60280772  .00000508  00000+0  15141-3 0  9997
2 20262  82.5917 116.1069 1229364 341.6182  14.3923 12.50563466671264
DELTA 1 R/B             
1 20323U 89089B   26157.80432611  .00000370  00000+0  10016-3 0  9990
2 20323  97.0641 351.0239 0068360 199.7922 160.0622 14.50724485908659
ARIANE 40 R/B           
1 20443U 90005H   26157.62142970  .00000267  00000+0  98237-4 0  9996
2 20443  98.2964 215.5656 0008919 300.8443  59.1867 14.39921906905602
DELTA 2 R/B(1)          
1 20453U 90008B   26157.11184448  .00100860  00000+0  79153-3 0  9995
2 20453  35.5996 309.6616 0068397   9.6562 350.5477 15.67094261939963
COSMOS 2058             
1 20465U 90010A   26157.54661974  .00003825  00000+0  22126-3 0  9993
2 20465  82.4665 319.8499 0010456  36.0110 324.1822 15.11943112955661
SL-14 R/B               
1 20466U 90010B   26157.57929422  .00000379  00000+0  42894-4 0  9998
2 20466  82.5019 183.9072 0020051  11.5476 348.6194 14.83639660941664
SL-14 R/B               
1 20511U 90018B   26157.21004448  .00000429  00000+0  50699-4 0  9998
2 20511  82.5201 140.3677 0016775 155.6622 204.5388 14.82209102935691
HST                     
1 20580U 90037B   26157.32027908  .00006872  00000+0  21780-3 0  9999
2 20580  28.4714 154.8380 0001885  34.6923 325.3796 15.30632786786907
SL-16 R/B               
1 20625U 90046B   26157.62723566  .00000257  00000+0  15697-3 0  9996
2 20625  70.9979 111.1256 0014140 177.7915 182.3272 14.15020420860976
